NORAD_CAT_ID,OBJECT_NAME,OBJECT_TYPE,EPOCH,MEAN_MOTION,ECCENTRICITY,INCLINATION,RA_OF_ASC_NODE,ARG_OF_PERICENTER,MEAN_ANOMALY,BSTAR,MEAN_MOTION_DOT,MEAN_MOTION_DDOT,TLE_LINE0,TLE_LINE1,TLE_LINE2,SEMIMAJOR_AXIS,PERIOD,APOGEE,PERIGEE,DECAYED
55744.0,STARLINK-5601,PAYLOAD,2023-07-14 07:27:19,14.98329928,0.0003341,69.999,168.7255,268.4431,91.6345,-2.9631e-05,-4.47e-06,0.0,0 STARLINK-5601,1 55744U 23028D   23195.31063704 -.00000447  00000-0 -29631-4 0  9996,2 55744  69.9990 168.7255 0003341 268.4431  91.6345 14.98329928 20838,6950.193,96.107,574.38,569.736,0.0
55744.0,STARLINK-5601,PAYLOAD,2023-07-15 07:29:19,14.98334321,0.0003351,69.9991,166.2009,268.7176,91.3599,8.8918e-05,9.68e-06,0.0,0 STARLINK-5601,1 55744U 23028D   23196.31203039  .00000968  00000-0  88918-4 0  9993,2 55744  69.9991 166.2009 0003351 268.7176  91.3599 14.98334321 20986,6950.18,96.107,574.374,569.716,0.0
55744.0,STARLINK-5601,PAYLOAD,2023-07-16 01:06:48,14.98324861,0.0003341,69.9992,164.3496,268.8615,91.2161,-2.409e-06,-1.22e-06,0.0,0 STARLINK-5601,1 55744U 23028D   23197.04639893 -.00000122  00000-0 -24090-5 0  9991,2 55744  69.9992 164.3496 0003341 268.8615  91.2161 14.98324861 21099,6950.209,96.107,574.396,569.752,0.0
55744.0,STARLINK-5601,PAYLOAD,2023-07-16 21:56:33,14.9833284,0.0003361,69.999,162.161,270.5632,89.5142,-1.0829e-05,-2.22e-06,0.0,0 STARLINK-5601,1 55744U 23028D   23197.91427490 -.00000222  00000-0 -10829-4 0  9990,2 55744  69.9990 162.1610 0003361 270.5632  89.5142 14.98332840 21222,6950.184,96.107,574.385,569.713,0.0
55744.0,STARLINK-5601,PAYLOAD,2023-07-17 23:34:42,14.98329712,0.0003377,69.9989,159.4678,270.253,89.8242,8.3134e-05,8.99e-06,0.0,0 STARLINK-5601,1 55744U 23028D   23198.98243222  .00000899  00000-0  83134-4 0  9994,2 55744  69.9989 159.4678 0003377 270.2530  89.8242 14.98329712 21389,6950.194,96.107,574.406,569.712,0.0
55744.0,STARLINK-5601,PAYLOAD,2023-07-18 07:35:21,14.98336336,0.0003318,69.999,158.6259,270.9751,89.1028,0.00012384,1.385e-05,0.0,0 STARLINK-5601,1 55744U 23028D   23199.31622648  .00001385  00000-0  12384-3 0  9994,2 55744  69.9990 158.6259 0003318 270.9751  89.1028 14.98336336 21435,6950.173,96.107,574.344,569.732,0.0
55744.0,STARLINK-5601,PAYLOAD,2023-07-19 02:48:59,14.98309378,0.0003281,69.9994,156.6069,267.7268,92.3516,0.00027244,3.157e-05,0.0,0 STARLINK-5601,1 55744U 23028D   23200.11736067  .00003157  00000-0  27244-3 0  9996,2 55744  69.9994 156.6069 0003281 267.7268  92.3516 14.98309378 21559,6950.257,96.108,574.402,569.841,0.0
55744.0,STARLINK-5601,PAYLOAD,2023-07-19 07:37:23,14.98333136,0.0003278,69.999,156.1013,269.7783,90.3001,-1.8849e-06,-1.16e-06,0.0,0 STARLINK-5601,1 55744U 23028D   23200.31763081 -.00000116  00000-0 -18849-5 0  9991,2 55744  69.9990 156.1013 0003278 269.7783  90.3001 14.98333136 21588,6950.183,96.107,574.326,569.77,0.0
55744.0,STARLINK-5601,PAYLOAD,2023-07-20 15:40:04,14.9835643,0.0003157,69.9993,152.7345,272.2347,87.8451,-0.00051189,-6.2e-05,0.0,0 STARLINK-5601,1 55744U 23028D   23201.65282701 -.00006200  00000-0 -51189-3 0  9996,2 55744  69.9993 152.7345 0003157 272.2347  87.8451 14.98356430 21786,6950.111,96.105,574.17,569.782,0.0
55744.0,STARLINK-5601,PAYLOAD,2023-07-20 22:04:37,14.98325779,0.0003238,69.9991,152.061,270.6901,89.3887,9.1712e-06,1.6e-07,0.0,0 STARLINK-5601,1 55744U 23028D   23201.91987529  .00000016  00000-0  91712-5 0  9990,2 55744  69.9991 152.0610 0003238 270.6901  89.3887 14.98325779 21827,6950.206,96.107,574.321,569.82,0.0
55744.0,STARLINK-5601,PAYLOAD,2023-07-23 23:46:48,14.98328242,0.0003136,69.9993,144.3195,265.3497,94.7304,-7.6274e-05,-1.003e-05,0.0,0 STARLINK-5601,1 55744U 23028D   23204.99083544 -.00001003  00000-0 -76274-4 0  9999,2 55744  69.9993 144.3195 0003136 265.3497  94.7304 14.98328242 22282,6950.198,96.107,574.243,569.884,0.0
55744.0,STARLINK-5601,PAYLOAD,2023-07-25 06:13:21,14.98285639,0.0002938,69.999,141.1215,262.0294,98.0531,0.00092225,0.00010916,0.0,0 STARLINK-5601,1 55744U 23028D   23206.25927883  .00010916  00000-0  92225-3 0  9997,2 55744  69.9990 141.1215 0002938 262.0294  98.0531 14.98285639 22477,6950.33,96.11,574.237,570.153,0.0
55744.0,STARLINK-5601,PAYLOAD,2023-07-26 03:03:05,14.98331094,0.0003027,69.9989,138.9316,268.028,92.0532,5.1665e-05,5.24e-06,0.0,0 STARLINK-5601,1 55744U 23028D   23207.12715006  .00000524  00000-0  51665-4 0  9994,2 55744  69.9989 138.9316 0003027 268.0280  92.0532 14.98331094 22609,6950.19,96.107,574.158,569.951,0.0
55744.0,STARLINK-5601,PAYLOAD,2023-07-26 04:39:13,14.98333456,0.0002943,69.9989,138.7628,270.3262,89.756,6.7454e-05,7.12e-06,0.0,0 STARLINK-5601,1 55744U 23028D   23207.19390845  .00000712  00000-0  67454-4 0  9993,2 55744  69.9989 138.7628 0002943 270.3262  89.7560 14.98333456 22614,6950.182,96.107,574.093,570.002,0.0
55744.0,STARLINK-5601,PAYLOAD,2023-07-26 23:52:50,14.98334473,0.0003005,69.9991,136.7444,269.776,90.3054,4.8969e-05,4.91e-06,0.0,0 STARLINK-5601,1 55744U 23028D   23207.99502656  .00000491  00000-0  48969-4 0  9990,2 55744  69.9991 136.7444 0003005 269.7760  90.3054 14.98334473 22735,6950.179,96.107,574.133,569.956,0.0
55744.0,STARLINK-5601,PAYLOAD,2023-07-27 04:41:13,14.98354631,0.0002582,69.9991,136.2392,262.8871,97.1995,-0.00013202,-1.669e-05,0.0,0 STARLINK-5601,1 55744U 23028D   23208.19529674 -.00001669  00000-0 -13202-3 0  9993,2 55744  69.9991 136.2392 0002582 262.8871  97.1995 14.98354631 22768,6950.117,96.105,573.776,570.187,0.0
55744.0,STARLINK-5601,PAYLOAD,2023-07-27 12:41:54,14.98335989,0.0002808,69.9989,135.3973,258.3189,101.7655,0.00011188,1.242e-05,0.0,0 STARLINK-5601,1 55744U 23028D   23208.52910129  .00001242  00000-0  11188-3 0  9995,2 55744  69.9989 135.3973 0002808 258.3189 101.7655 14.98335989 22819,6950.174,96.107,573.991,570.088,0.0
55744.0,STARLINK-5601,PAYLOAD,2023-07-28 01:31:00,14.9832061,0.0003131,69.9989,134.0516,271.6643,88.4157,-0.00013468,-1.699e-05,0.0,0 STARLINK-5601,1 55744U 23028D   23209.06320021 -.00001699  00000-0 -13468-3 0  9992,2 55744  69.9989 134.0516 0003131 271.6643  88.4157 14.98320610 22892,6950.222,96.108,574.263,569.911,0.0
55744.0,STARLINK-5601,PAYLOAD,2023-07-29 01:33:00,14.98338085,0.0003113,69.9991,131.5267,270.6626,89.4176,6.1524e-06,-2e-07,0.0,0 STARLINK-5601,1 55744U 23028D   23210.06458699 -.00000020  00000-0  61524-5 0  9991,2 55744  69.9991 131.5267 0003113 270.6626  89.4176 14.98338085 23045,6950.168,96.106,574.196,569.869,0.0
55744.0,STARLINK-5601,PAYLOAD,2023-07-29 19:10:29,14.98321957,0.0003028,69.9992,129.6751,272.6249,87.4563,0.00014847,1.679e-05,0.0,0 STARLINK-5601,1 55744U 23028D   23210.79895258  .00001679  00000-0  14847-3 0  9991,2 55744  69.9992 129.6751 0003028 272.6249  87.4563 14.98321957 23150,6950.218,96.108,574.187,569.978,0.0
55744.0,STARLINK-5601,PAYLOAD,2023-07-30 04:47:17,14.98333829,0.0003023,69.9993,128.6648,270.9765,89.1048,0.0001746,1.991e-05,0.0,0 STARLINK-5601,1 55744U 23028D   23211.19950531  .00001991  00000-0  17460-3 0  9993,2 55744  69.9993 128.6648 0003023 270.9765  89.1048 14.98333829 23219,6950.181,96.107,574.147,569.945,0.0
55744.0,STARLINK-5601,PAYLOAD,2023-07-30 19:12:30,14.98331125,0.0002966,69.9997,127.1509,275.8726,84.2094,-3.1036e-05,-4.63e-06,0.0,0 STARLINK-5601,1 55744U 23028D   23211.80035295 -.00000463  00000-0 -31036-4 0  9993,2 55744  69.9997 127.1509 0002966 275.8726  84.2094 14.98331125 23303,6950.189,96.107,574.116,569.993,0.0
55744.0,STARLINK-5601,PAYLOAD,2023-07-31 04:49:18,14.98339691,0.0003046,69.9991,126.1402,272.4254,87.6556,2.6587e-05,2.24e-06,0.0,0 STARLINK-5601,1 55744U 23028D   23212.20090438  .00000224  00000-0  26587-4 0  9996,2 55744  69.9991 126.1402 0003046 272.4254  87.6556 14.98339691 23369,6950.163,96.106,574.145,569.911,0.0
55744.0,STARLINK-5601,PAYLOAD,2023-07-31 17:38:23,14.98327169,0.0002939,69.9992,124.7935,271.3469,88.7353,-2.9819e-05,-4.49e-06,0.0,0 STARLINK-5601,1 55744U 23028D   23212.73499285 -.00000449  00000-0 -29819-4 0  9999,2 55744  69.9992 124.7935 0002939 271.3469  88.7353 14.98327169 23444,6950.202,96.107,574.109,570.024,0.0
55744.0,STARLINK-5601,PAYLOAD,2023-08-01 04:51:19,14.98334007,0.000296,69.9991,123.6152,270.2267,89.8553,4.0313e-05,3.88e-06,0.0,0 STARLINK-5601,1 55744U 23028D   23213.20230617  .00000388  00000-0  40313-4 0  9996,2 55744  69.9991 123.6152 0002960 270.2267  89.8553 14.98334007 23511,6950.18,96.107,574.103,569.988,0.0
55744.0,STARLINK-5601,PAYLOAD,2023-08-02 00:04:56,14.98323888,0.0002957,69.999,121.5953,269.1591,90.9229,-4.414e-05,-6.2e-06,0.0,0 STARLINK-5601,1 55744U 23028D   23214.00343570 -.00000620  00000-0 -44140-4 0  9991,2 55744  69.9990 121.5953 0002957 269.1591  90.9229 14.98323888 23630,6950.212,96.107,574.132,570.022,0.0
55744.0,STARLINK-5601,PAYLOAD,2023-08-02 11:17:52,14.98330972,0.0002735,69.9996,120.417,269.5022,90.5824,2.0134e-05,1.47e-06,0.0,0 STARLINK-5601,1 55744U 23028D   23214.47075045  .00000147  00000-0  20134-4 0  9990,2 55744  69.9996 120.4170 0002735 269.5022  90.5824 14.98330972 23709,6950.19,96.107,573.956,570.154,0.0
55744.0,STARLINK-5601,PAYLOAD,2023-08-03 01:43:04,14.9833805,0.0002989,69.9989,118.9015,268.0842,91.9975,0.00012178,1.361e-05,0.0,0 STARLINK-5601,1 55744U 23028D   23215.07158164  .00001361  00000-0  12178-3 0  9998,2 55744  69.9989 118.9015 0002989 268.0842  91.9975 14.98338050 23792,6950.168,96.106,574.11,569.956,0.0
55744.0,STARLINK-5601,PAYLOAD,2023-08-03 17:44:26,14.98324594,0.0002146,70.0011,117.2195,263.3356,96.7559,0.00010271,1.133e-05,0.0,0 STARLINK-5601,1 55744U 23028D   23215.73919080  .00001133  00000-0  10271-3 0  9992,2 55744  70.0011 117.2195 0002146 263.3356  96.7559 14.98324594 23895,6950.21,96.107,573.566,570.583,0.0
55744.0,STARLINK-5601,PAYLOAD,2023-08-04 01:45:06,14.98320793,0.0002796,69.9998,116.3791,261.6444,98.4398,-1.367e-05,-2.56e-06,0.0,0 STARLINK-5601,1 55744U 23028D   23216.07299677 -.00000256  00000-0 -13670-4 0  9997,2 55744  69.9998 116.3791 0002796 261.6444  98.4398 14.98320793 23941,6950.221,96.108,574.03,570.143,0.0
